     2              NAVIGATION DATA                         RINEX VERSION / TYPE
CCRINEXN V1.6.0 UX  CDDIS               28-SEP-18 17:31     PGM / RUN BY / DATE 
IGS BROADCAST EPHEMERIS FILE                                COMMENT             
    0.8382D-08  0.1490D-07 -0.5960D-07 -0.5960D-07          ION ALPHA           
    0.8397D+05  0.1638D+05 -0.1311D+06 -0.6554D+05          ION BETA            
    0.000000000000D+00 0.532907051820D-14   589824     2020 DELTA-UTC: A0,A1,T,W
    18                                                      LEAP SECONDS        
                                                            END OF HEADER       
31 18  9 27  0  0  0.0 0.908197835088D-04-0.261479726760D-11 0.000000000000D+00
    0.510000000000D+02 0.654687500000D+02 0.491163332228D-08 0.147701446530D-01
    0.333786010742D-05 0.889601057861D-02 0.443309545517D-05 0.515374437332D+04
    0.345600000000D+06 0.800937414169D-07-0.171278091037D+01-0.167638063431D-07
    0.961789200666D+00 0.293593750000D+03-0.108209814985D+00-0.851785486589D-08
    0.233581154419D-09 0.100000000000D+01 0.202000000000D+04 0.000000000000D+00
    0.200000000000D+01 0.000000000000D+00-0.135041773319D-07 0.510000000000D+02
    0.345600000000D+06 0.000000000000D+00 0.000000000000D+00 0.000000000000D+00
32 18  9 27  0  0  0.0-0.411628279835D-03 0.117097442853D-10 0.000000000000D+00
    0.340000000000D+02 0.193750000000D+02 0.441946967911D-08-0.247123342767D+01
    0.107288360596D-05 0.230896938592D-02 0.124517828226D-04 0.515371543121D+04
    0.345600000000D+06 0.167638063431D-07-0.279753971175D+01-0.577419996262D-07
    0.957442454121D+00 0.137281250000D+03-0.255794708198D+01-0.788711407296D-08
    0.275011454581D-10 0.100000000000D+01 0.202000000000D+04 0.000000000000D+00
    0.200000000000D+01 0.000000000000D+00 0.465661287308D-09 0.340000000000D+02
    0.345600000000D+06 0.000000000000D+00 0.000000000000D+00 0.000000000000D+00
 3 18  9 27  1 25  0.0 0.141573837027D-03 0.494537744089D-11 0.000000000000D+00
    0.145000000000D+03-0.607890625000D+02 0.476109117570D-08 0.551976906202D+00
   -0.315159559250D-05 0.175630499143D-02 0.618491321802D-05 0.515367021430D+04
    0.350700000000D+06 0.465661287308D-08 0.244724839715D+01 0.139698386192D-07
    0.961663913436D+00 0.261019531250D+03 0.649830442492D+00-0.828350282574D-08
   -0.360907890405D-09 0.100000000000D+01 0.202000000000D+04 0.000000000000D+00
    0.640000000000D+02 0.000000000000D+00 0.186264514923D-08 0.145000000000D+03
    0.350742000000D+06 0.400000000000D+01 0.000000000000D+00 0.000000000000D+00
 1 18  9 27  1 30  0.0-0.930404930841D-04-0.470379291073D-11 0.000000000000D+00
    0.146000000000D+03 0.525000000000D+02 0.447643646155D-08 0.165819522143D+01
    0.266078859568D-05 0.812241935637D-02 0.564008951187D-05 0.515366199029D+04
    0.351000000000D+06-0.149011611938D-06 0.140403430922D+01 0.549480319023D-07
    0.972286261088D+00 0.276242187500D+03 0.697135072577D+00-0.823903668783D-08
    0.381801617856D-09 0.100000000000D+01 0.202000000000D+04 0.000000000000D+00
    0.320000000000D+02 0.000000000000D+00 0.558793544769D-08 0.146000000000D+03
    0.345612000000D+06 0.400000000000D+01 0.000000000000D+00 0.000000000000D+00
 3 18  9 27  1 30  0.0 0.141576776514D-03 0.495958829561D-11 0.000000000000D+00
    0.146000000000D+03-0.607890625000D+02 0.475734101949D-08 0.595732930782D+00
   -0.315159559250D-05 0.175631284947D-02 0.618491321802D-05 0.515367019307D+04
    0.351000000000D+06 0.465661287308D-08 0.244724593579D+01 0.139698386192D-07
    0.961663804449D+00 0.261019531250D+03 0.649832103636D+00-0.828368140461D-08
   -0.360729311538D-09 0.100000000000D+01 0.202000000000D+04 0.000000000000D+00
    0.102400000000D+04 0.000000000000D+00 0.186264514923D-08 0.146000000000D+03
    0.345612000000D+06 0.400000000000D+01 0.000000000000D+00 0.000000000000D+00
 5 18  9 27  1 30  0.0-0.154532608576D-05 0.387245790989D-12 0.000000000000D+00
    0.146000000000D+03-0.644726562500D+02 0.505110325587D-08-0.170527465649D+01
   -0.336952507496D-05 0.564305827720D-02 0.628177076578D-05 0.515378545855D+04
    0.351000000000D+06 0.540167093277D-07 0.242375238430D+01-0.186264514923D-07
    0.948526909084D+00 0.249507812500D+03 0.691384467418D+00-0.839636466975D-08
   -0.315727437029D-09 0.100000000000D+01 0.202000000000D+04 0.000000000000D+00
    0.204800000000D+04 0.000000000000D+00-0.111758708954D-07 0.146000000000D+03
    0.348012000000D+06 0.400000000000D+01 0.000000000000D+00 0.000000000000D+00
 7 18  9 27  1 30  0.0 0.117083400255D-03-0.670041799822D-11 0.000000000000D+00
    0.146000000000D+03 0.660390625000D+02 0.508735476589D-08 0.101890785180D+01
    0.345148146152D-05 0.120958195184D-01 0.442005693913D-05 0.515364009668D+04
    0.351000000000D+06-0.400468707085D-07-0.172586381601D+01 0.142492353916D-06
    0.957178734611D+00 0.292699218750D+03-0.248915057610D+01-0.867244759828D-08
    0.147506144223D-09 0.100000000000D+01 0.202000000000D+04 0.000000000000D+00
    0.512000000000D+03 0.000000000000D+00-0.111758708954D-07 0.146000000000D+03
    0.345660000000D+06 0.400000000000D+01 0.000000000000D+00 0.000000000000D+00
 8 18  9 27  1 30  0.0-0.116522278404D-03-0.131095134748D-11 0.000000000000D+00
    0.146000000000D+03-0.146835937500D+02 0.393784259838D-08-0.205039523960D+01
   -0.741332769394D-06 0.356500368798D-02 0.117635354400D-04 0.515363541533D+04
    0.351000000000D+06-0.344589352608D-07 0.338710704409D+00 0.316649675369D-07
    0.970026343776D+00 0.160750000000D+03-0.409301090176D+00-0.773580144035D-08
    0.816105422638D-10 0.100000000000D+01 0.202000000000D+04 0.000000000000D+00
    0.102400000000D+04 0.000000000000D+00 0.512227416039D-08 0.146000000000D+03
    0.345612000000D+06 0.400000000000D+01 0.000000000000D+00 0.000000000000D+00
 9 18  9 27  1 30  0.0 0.504182942677D-03-0.229860575018D-11 0.000000000000D+00
    0.146000000000D+03 0.293515625000D+02 0.452429559793D-08-0.200167587630D+01
    0.153016299009D-05 0.106782861985D-02 0.118799507618D-04 0.515354674025D+04
    0.351000000000D+06 0.139698386192D-07-0.280314026101D+01-0.307336449623D-07
    0.953105858033D+00 0.149304687500D+03 0.173684124826D+01-0.793188103642D-08
    0.867893294097D-10 0.100000000000D+01 0.202000000000D+04 0.000000000000D+00
    0.102400000000D+04 0.000000000000D+00 0.931322574616D-09 0.146000000000D+03
    0.348462000000D+06 0.400000000000D+01 0.000000000000D+00 0.000000000000D+00
10 18  9 27  1 30  0.0 0.179237133125D-03-0.273558953268D-11 0.000000000000D+00
    0.146000000000D+03-0.632265625000D+02 0.479841415892D-08-0.316379525449D+00
   -0.332668423653D-05 0.382220151368D-02 0.615417957306D-05 0.515366136971D+04
    0.351000000000D+06 0.670552253723D-07 0.244386504726D+01 0.493600964546D-07
    0.961728572221D+00 0.260929687500D+03-0.280580750958D+01-0.835064847977D-08
   -0.365729519817D-09 0.100000000000D+01 0.202000000000D+04 0.000000000000D+00
    0.512000000000D+03 0.000000000000D+00 0.186264514923D-08 0.146000000000D+03
    0.345612000000D+06 0.400000000000D+01 0.000000000000D+00 0.000000000000D+00
17 18  9 27  1 30  0.0-0.511040561832D-04 0.433431068814D-11 0.000000000000D+00
    0.146000000000D+03 0.160820312500D+02 0.362604389643D-08-0.243246557704D+01
    0.682659447193D-06 0.126061991905D-01 0.129248946905D-04 0.515361928743D+04
    0.351000000000D+06 0.130385160446D-06 0.402861112668D+00-0.614672899246D-07
    0.983585427790D+00 0.139761718750D+03-0.177348819903D+01-0.728774706280D-08
    0.143934566881D-09 0.100000000000D+01 0.202000000000D+04 0.000000000000D+00
    0.204800000000D+04 0.000000000000D+00-0.111758708954D-07 0.146000000000D+03
    0.349644000000D+06 0.400000000000D+01 0.000000000000D+00 0.000000000000D+00
27 18  9 27  1 30  0.0 0.340851838700D-03-0.401101374337D-11 0.000000000000D+00
    0.146000000000D+03-0.166679687500D+02 0.373694137289D-08-0.242482211754D+01
   -0.836327672005D-06 0.604884780478D-02 0.123158097267D-04 0.515369782842D+04
    0.351000000000D+06-0.167638063431D-07 0.348139435988D+00-0.223517417908D-07
    0.978249994393D+00 0.152351562500D+03 0.450466314633D+00-0.754311484275D-08
    0.114647632677D-09 0.100000000000D+01 0.202000000000D+04 0.000000000000D+00
    0.102400000000D+04 0.000000000000D+00 0.186264514923D-08 0.146000000000D+03
    0.345612000000D+06 0.400000000000D+01 0.000000000000D+00 0.000000000000D+00
30 18  9 27  1 30  0.0 0.184728996828D-04-0.531485966349D-11 0.000000000000D+00
    0.146000000000D+03 0.683593750000D+02 0.538611721054D-08 0.997110758625D+00
    0.351388007402D-05 0.362704176223D-02 0.380631536245D-05 0.515368242399D+04
    0.351000000000D+06 0.419095158577D-07-0.169406792427D+01 0.214204192162D-07
    0.942722598740D+00 0.296238281250D+03-0.297380008410D+01-0.872334257540D-08
    0.214116061651D-09 0.100000000000D+01 0.202000000000D+04 0.000000000000D+00
    0.204800000000D+04 0.000000000000D+00 0.372529029846D-08 0.146000000000D+03
    0.345612000000D+06 0.400000000000D+01 0.000000000000D+00 0.000000000000D+00
31 18  9 27  1 30  0.0 0.908059009817D-04-0.262900812231D-11 0.000000000000D+00
    0.146000000000D+03 0.694453125000D+02 0.495252772123D-08 0.802139300504D+00
    0.371318310499D-05 0.889390322845D-02 0.499747693539D-05 0.515374440524D+04
    0.351000000000D+06 0.838190317154D-07-0.171282677139D+01 0.204890966415D-07
    0.961790556060D+00 0.281433593750D+03-0.107968274043D+00-0.848886852290D-08
    0.220902058600D-09 0.100000000000D+01 0.202000000000D+04 0.000000000000D+00
    0.204800000000D+04 0.000000000000D+00-0.135041773319D-07 0.146000000000D+03
    0.345660000000D+06 0.400000000000D+01 0.000000000000D+00 0.000000000000D+00
